MTI                     
1 26102U 00014A   17279.41227003  .00006762  00000-0  13066-3 0  9991
2 26102  97.5788  95.7617 0006347 224.7068 156.3866 15.48124061971724
CFESAT                  
1 30777U 07006F   17278.92213767  .00004274  00000-0  13760-3 0  9996
2 30777  35.4249 108.0189 0007253 268.9510  91.0384 15.31724648584999
SPIRALE A               
1 33751U 09008C   17278.61573507  .00000016  00000-0  82933-5 0  9992
2 33751   2.0837  59.0311 5498364 282.5598  23.9675  4.58667985116017
SPIRALE B               
1 33752U 09008D   17279.38022145  .00001099  00000-0  30736-3 0  9999
2 33752   2.1318 306.0037 6949641 145.9572 288.6505  2.70421850 77858
SAPPHIRE                
1 39088U 13009C   17278.62015411  .00000022  00000-0  23348-4 0  9994
2 39088  98.5481 120.5137 0010943 334.7333  25.3315 14.34151640241170
